1 41868U 16061G   19170.48331964  .00008300  00000-0  45116-4 0  9999
2 41868  42.7921 233.5965 0006194  52.9471  32.8789 15.80360302148238
1 41868U 16061G   19171.49609086  .00007629  00000-0  41659-4 0  9995
2 41868  42.7919 227.3848 0005899  62.0753  32.8873 15.80374733148396
1 41868U 16061G   19172.51477995  .00007654  00000-0  41758-4 0  9999
2 41868  42.7923 221.1372 0005677  71.5094  66.3640 15.80391507148552
1 41868U 16061G   19173.52755175  .00008493  00000-0  46001-4 0  9998
2 41868  42.7917 214.9230 0005553  77.1683  69.9832 15.80412074148710
1 41868U 16061G   19174.47375194  .00009052  00000-0  48808-4 0  9991
2 41868  42.7909 209.1159 0005526  83.4795  53.7918 15.80431755148860
1 41868U 16061G   19175.48641272  .00008739  00000-0  47178-4 0  9996
2 41868  42.7908 202.9074 0005539  95.4788  50.5666 15.80449296149028
1 41868U 16061G   19176.55958017  .00008004  00000-0  43401-4 0  9993
2 41868  42.7917 196.3212 0005610 104.5525  35.0185 15.80465472149195
1 41868U 16061G   19177.50617675  .00008214  00000-0  44436-4 0  9993
2 41868  42.7917 190.5136 0005528 112.9360  19.1855 15.80482456149349
1 41868U 16061G   19178.51848472  .00008798  00000-0  47360-4 0  9992
2 41868  42.7917 184.3009 0005584 121.2937  17.7970 15.80503180149502
1 41868U 16061G   19179.89781980  .00009321  00000-0  49952-4 0  9996
2 41868  42.7917 175.8356 0005709 133.6102 303.4658 15.80531324149725
1 41868U 16061G   19180.91038171  .00009005  00000-0  48307-4 0  9990
2 41868  42.7915 169.6230 0005795 142.4690 303.1844 15.80549468149889
1 41868U 16061G   19181.85663778  .00009130  00000-0  48898-4 0  9995
2 41868  42.7913 163.8154 0005942 151.1883 285.3672 15.80567980150031
1 41868U 16061G   19182.86882543  .00008917  00000-0  47781-4 0  9992
2 41868  42.7912 157.6041 0005983 159.5278 283.6069 15.80586146150194
1 41868U 16061G   19183.81540471  .00009509  00000-0  50723-4 0  9997
2 41868  42.7909 151.7941 0006117 167.2649 268.7487 15.80607008150348
1 41868U 16061G   19184.82757134  .00011112  00000-0  58739-4 0  9993
2 41868  42.7913 145.5831 0006160 174.0368 268.6218 15.80635567150504
1 41868U 16061G   19185.77411002  .00011574  00000-0  61000-4 0  9996
2 41868  42.7913 139.7738 0006439 181.9018 253.5748 15.80659537150653
1 41868U 16061G   19186.78625343  .00010658  00000-0  56327-4 0  9991
2 41868  42.7921 133.5626 0006705 190.1802 251.9517 15.80678969150813
1 41868U 16061G   19187.92155503  .00009502  00000-0  50461-4 0  9993
2 41868  42.7918 126.5940 0006925 198.0325 232.5256 15.80698087150998
1 41868U 16061G   19188.87527865  .00009335  00000-0  49581-4 0  9997
2 41868  42.7927 120.7414 0007080 204.7277 259.7825 15.80716517151144
1 41868U 16061G   19189.81351287  .00009253  00000-0  49121-4 0  9994
2 41868  42.7926 114.9849 0007550 210.5928 199.6791 15.80734368151294
1 41868U 16061G   19190.83387662  .00009398  00000-0  49798-4 0  9994
2 41868  42.7926 108.7217 0007599 216.8155 247.2388 15.80754944151450
1 41868U 16061G   19191.83504495  .00011189  00000-0  58686-4 0  9997
2 41868  42.7926 102.5760 0007972 223.7036 184.8810 15.80784598151617
1 41868U 16061G   19193.85562549  .00014519  00000-0  75112-4 0  9998
2 41868  42.7931  90.1726 0007736 237.0312 164.9053 15.80853527151932
1 41868U 16061G   19194.86808403  .00013433  00000-0  69617-4 0  9999
2 41868  42.7935  83.9558 0007903 243.7513 167.3523 15.80878020152094
1 41868U 16061G   19195.95457568  .00010925  00000-0  57072-4 0  9997
2 41868  42.7932  77.2859 0008200 248.8226 233.3657 15.80894403152263
1 41868U 16061G   19196.82644762  .00010226  00000-0  53553-4 0  9992
2 41868  42.7935  71.9326 0008276 254.0857 156.3067 15.80911206152404
1 41868U 16061G   19197.77254955  .00009760  00000-0  51193-4 0  9997
2 41868  42.7935  66.1239 0008321 260.2130 141.4283 15.80929116152557
1 41868U 16061G   19198.78476127  .00009813  00000-0  51401-4 0  9997
2 41868  42.7940  59.9116 0008469 264.1662 145.5218 15.80950133152717
1 41868U 16061G   19199.93797196  .00009913  00000-0  51842-4 0  9997
2 41868  42.7939  52.8304 0008485 271.7419 229.5631 15.80974430152895
1 41868U 16061G   19200.94796111  .00009516  00000-0  49826-4 0  9995
2 41868  42.7944  46.6289 0008519 278.5271 218.3152 15.80993616153053
1 41868U 16061G   19201.82137267  .00009158  00000-0  48019-4 0  9999
2 41868  42.7939  41.2641 0008515 284.4668 149.6648 15.81009190153199
1 41868U 16061G   19202.76753188  .00008355  00000-0  44011-4 0  9995
2 41868  42.7944  35.4537 0008550 291.5152 134.5156 15.81023541153340
1 41868U 16061G   19203.91847066  .00008536  00000-0  44864-4 0  9999
2 41868  42.7939  28.3871 0008679 298.2781 206.7211 15.81044720153526
1 41868U 16061G   19204.86430146  .00009641  00000-0  50276-4 0  9993
2 41868  42.7939  22.5780 0008699 303.6805 191.5042 15.81067091153676
1 41868U 16061G   19205.87041588  .00010403  00000-0  53981-4 0  9997
2 41868  42.7938  16.3991 0008577 309.6242 159.3745 15.81091060153839
1 41868U 16061G   19206.48888652  .00010585  00000-0  54844-4 0  9996
2 41868  42.7939  12.5998 0008539 313.7614  79.9225 15.81105386153930
1 41868U 16061G   19207.83472737  .00010129  00000-0  52532-4 0  9995
2 41868  42.7938   4.3349 0008454 320.7980 182.9655 15.81132283154140
1 41868U 16061G   19208.90739168  .00009328  00000-0  48556-4 0  9998
2 41868  42.7936 357.7534 0008111 324.9333 172.1354 15.81151003154314
1 41868U 16061G   19209.79262455  .00009330  00000-0  48523-4 0  9993
2 41868  42.7932 352.3144 0008275 332.1223 170.1106 15.81168478154450
1 41868U 16061G   19210.80485405  .00009412  00000-0  48887-4 0  9993
2 41868  42.7936 346.0970 0008113 338.7648 172.4881 15.81188631154611
1 41868U 16061G   19211.81110924  .00009777  00000-0  50630-4 0  9999
2 41868  42.7935 339.9146 0008053 345.6826 140.6208 15.81210302154772
1 41868U 16061G   19212.76367223  .00009934  00000-0  51361-4 0  9997
2 41868  42.7939 334.0653 0007911 352.2624 163.1461 15.81230537154927
1 41868U 16061G   19213.76903537  .00010403  00000-0  53605-4 0  9998
2 41868  42.7940 327.8882 0007738 358.5892 126.9429 15.81253819155083
1 41868U 16061G   19214.78161168  .00010751  00000-0  55252-4 0  9993
2 41868  42.7935 321.6697 0007603   5.6617 131.1850 15.81277216155240
1 41868U 16061G   19215.72724538  .00010157  00000-0  52306-4 0  9991
2 41868  42.7934 315.8595 0007523  12.4624 114.2177 15.81295824155391
1 41868U 16061G   19216.73980905  .00009074  00000-0  46981-4 0  9993
2 41868  42.7937 309.6395 0007217  20.1857 117.8687 15.81312297155554
1 41868U 16061G   19217.68541257  .00008311  00000-0  43227-4 0  9994
2 41868  42.7941 303.8308 0006980  27.8380  99.9910 15.81327094155707
1 41868U 16061G   19219.64245802  .00016831  00000-0  84500-4 0  9994
2 41868  42.7932 291.8066 0006957  41.1329  81.8986 15.81406233156011
1 41868U 16061G   19220.65462565  .00015012  00000-0  75581-4 0  9993
2 41868  42.7932 285.5886 0006583  50.6989  81.8660 15.81432723156172
1 41868U 16061G   19221.66631410  .00012034  00000-0  61068-4 0  9998
2 41868  42.7924 279.3705 0006585  57.3920  82.0499 15.81450942156339
1 41868U 16061G   19222.61228071  .00010849  00000-0  55269-4 0  9997
2 41868  42.7924 273.5584 0006485  65.7031  66.0579 15.81469313156484
1 41868U 16061G   19223.62406759  .00010662  00000-0  54308-4 0  9996
2 41868  42.7921 267.3406 0006434  73.3373  66.0240 15.81491596156644
1 41868U 16061G   19224.50909604  .00010720  00000-0  54542-4 0  9996
2 41868  42.7922 261.9065 0006275  81.8632  62.5891 15.81511479156782
1 41868U 16061G   19225.52108501  .00010648  00000-0  54139-4 0  9997
2 41868  42.7921 255.6887 0006057  92.9048  60.4545 15.81533653156944
1 41868U 16061G   19226.46667027  .00010366  00000-0  52731-4 0  9997
2 41868  42.7921 249.8756 0006074  99.5912  44.2043 15.81553275157098
1 41868U 16061G   19227.76415509  .00009890  00000-0  50370-4 0  9994
2 41868  42.7922 241.8998 0005950 108.6593 231.7315 15.81579245157290
1 41868U 16061G   19228.91743177  .00010232  00000-0  51962-4 0  9997
2 41868  42.7919 234.8090 0005890 116.2193 318.7892 15.81604783157488
1 41868U 16061G   19229.75667685  .00009545  00000-0  48613-4 0  9993
2 41868  42.7916 229.6575 0006073 123.5571  55.8772 15.81619250157616
1 41868U 16061G   19230.87486898  .00010402  00000-0  52679-4 0  9994
2 41868  42.7906 222.7828 0005881 131.9903 302.2209 15.81645887157796
1 41868U 16061G   19231.88633398  .00010712  00000-0  54115-4 0  9996
2 41868  42.7910 216.5663 0006057 142.1109 298.5129 15.81668885157956
1 41868U 16061G   19232.83208206  .00010559  00000-0  53326-4 0  9990
2 41868  42.7908 210.7507 0006017 149.2761 283.1757 15.81689093158103
1 41868U 16061G   19233.84369706  .00010118  00000-0  51153-4 0  9992
2 41868  42.7916 204.5344 0006717 160.6374 279.2256 15.81708453158265
1 41868U 16061G   19234.78937253  .00009911  00000-0  50115-4 0  9990
2 41868  42.7914 198.7197 0006711 167.4792 263.9309 15.81727457158417
1 41868U 16061G   19235.92024896  .00010282  00000-0  51833-4 0  9998
2 41868  42.7908 191.7671 0006860 175.6299 223.3046 15.81752788158590
1 41868U 16061G   19236.86572676  .00010146  00000-0  51129-4 0  9993
2 41868  42.7909 185.9543 0007085 183.1096 206.3991 15.81772432158748
1 41868U 16061G   19237.75825597  .00009703  00000-0  48975-4 0  9997
2 41868  42.7898 180.4669 0007150 188.9941 249.2510 15.81788289158884
1 41868U 16061G   19238.82605293  .00009805  00000-0  49397-4 0  9997
2 41868  42.7912 173.9044 0007895 197.4218 208.9385 15.81810709159058
1 41868U 16061G   19239.84561546  .00010410  00000-0  52226-4 0  9991
2 41868  42.7911 167.6359 0007957 203.9849 255.5587 15.81833928159216
1 41868U 16061G   19240.91653317  .00012050  00000-0  59948-4 0  9999
2 41868  42.7903 161.0524 0008178 212.9776 232.6722 15.81864243159383
1 41868U 16061G   19241.80274667  .00012689  00000-0  62906-4 0  9991
2 41868  42.7904 155.6032 0008431 218.6218 240.0868 15.81889637159527
1 41868U 16061G   19242.81456650  .00011936  00000-0  59265-4 0  9995
2 41868  42.7923 149.3831 0008482 225.0732 242.9478 15.81912336159682
